{
    "links": {
        "self": "http://www.neowsapp.com/rest/v1/neo/3249035?api_key=iIulBulltgU6a56xZRHN4H3l9WmuAYTsLGpBGhQ2"
    },
    "id": "3249035",
    "neo_reference_id": "3249035",
    "name": "(2004 PJ)",
    "designation": "2004 PJ",
    "nasa_jpl_url": "http://ssd.jpl.nasa.gov/sbdb.cgi?sstr=3249035",
    "absolute_magnitude_h": 22.8,
    "estimated_diameter": {
        "kilometers": {
            "estimated_diameter_min": 0.0732073989,
            "estimated_diameter_max": 0.1636967205
        },
        "meters": {
            "estimated_diameter_min": 73.2073989347,
            "estimated_diameter_max": 163.696720474
        },
        "miles": {
            "estimated_diameter_min": 0.0454889547,
            "estimated_diameter_max": 0.1017163949
        },
        "feet": {
            "estimated_diameter_min": 240.181762721,
            "estimated_diameter_max": 537.0627483999
        }
    },
    "is_potentially_hazardous_asteroid": false,
    "close_approach_data": [
        {
            "close_approach_date": "2004-07-21",
            "close_approach_date_full": "2004-Jul-21 08:29",
            "epoch_date_close_approach": 1090398540000,
            "relative_velocity": {
                "kilometers_per_second": "7.6031342808",
                "kilometers_per_hour": "27371.2834109607",
                "miles_per_hour": "17007.4510727716"
            },
            "miss_distance": {
                "astronomical": "0.0614289137",
                "lunar": "23.8958474293",
                "kilometers": "9189634.645933819",
                "miles": "5710174.1846879422"
            },
            "orbiting_body": "Earth"
        },
        {
            "close_approach_date": "2119-09-02",
            "close_approach_date_full": "2119-Sep-02 17:07",
            "epoch_date_close_approach": 4723117620000,
            "relative_velocity": {
                "kilometers_per_second": "21.0004008709",
                "kilometers_per_hour": "75601.4431350859",
                "miles_per_hour": "46975.7967080205"
            },
            "miss_distance": {
                "astronomical": "0.4944258516",
                "lunar": "192.3316562724",
                "kilometers": "73965054.272296092",
                "miles": "45959753.5427143896"
            },
            "orbiting_body": "Earth"
        },
        {
            "close_approach_date": "2136-08-24",
            "close_approach_date_full": "2136-Aug-24 11:27",
            "epoch_date_close_approach": 5258863620000,
            "relative_velocity": {
                "kilometers_per_second": "16.7059330008",
                "kilometers_per_hour": "60141.358802713",
                "miles_per_hour": "37369.5015293857"
            },
            "miss_distance": {
                "astronomical": "0.3490361392",
                "lunar": "135.7750581488",
                "kilometers": "52215062.977343504",
                "miles": "32444935.6424641952"
            },
            "orbiting_body": "Earth"
        }
    ],
    "orbital_data": {
        "orbit_id": "16",
        "orbit_determination_date": "2017-04-06 09:12:32",
        "first_observation_date": "2004-06-14",
        "last_observation_date": "2004-08-23",
        "data_arc_in_days": 70,
        "observations_used": 110,
        "orbit_uncertainty": "7",
        "minimum_orbit_intersection": ".0548804",
        "jupiter_tisserand_invariant": "3.419",
        "epoch_osculation": "2459000.5",
        "eccentricity": ".5342497268862511",
        "semi_major_axis": "2.250374143810526",
        "inclination": "5.408246635311811",
        "ascending_node_longitude": "139.295841267619",
        "orbital_period": "1233.049526500958",
        "perihelion_distance": "1.048112372087872",
        "perihelion_argument": "145.5507204405593",
        "aphelion_distance": "3.452635915533182",
        "perihelion_time": "2459365.929278401615",
        "mean_anomaly": "253.309605658829",
        "mean_motion": ".2919590756598212",
        "equinox": "J2000",
        "orbit_class": {
            "orbit_class_type": "AMO",
            "orbit_class_description": "Near-Earth asteroid orbits similar to that of 1221 Amor",
            "orbit_class_range": "1.017 AU < q (perihelion) < 1.3 AU"
        }
    },
    "is_sentry_object": false
}